0 COSMOS 1859
1 18120U 87051H   13281.43921214 -.00000025  00000-0 -51935-4 0  2555
2 18120 074.0034 160.9571 0057495 227.7175 186.7496 12.57880299208431
0 COSMOS 1859
1 18120U 87051H   13283.51024117  .00000001  00000-0  10144-3 0  2561
2 18120 074.0031 158.1599 0057466 224.5864 205.1123 12.57879950208698
0 COSMOS 1859
1 18120U 87051H   13285.82873767  .00000024  00000-0  24162-3 0  2571
2 18120 074.0026 155.0284 0057437 221.0738 264.1019 12.57879843208981
0 COSMOS 1859
1 18120U 87051H   13288.06203929  .00000020  00000-0  21775-3 0  2581
2 18120 074.0020 152.0119 0057412 217.6990 297.2878 12.57880108209261
0 COSMOS 1859
1 18120U 87051H   13290.51091720 -.00000013  00000-0  22339-4 0  2590
2 18120 074.0017 148.7042 0057364 213.9730 226.7066 12.57880532209572
0 COSMOS 1859
1 18120U 87051H   13292.81161731 -.00000030  00000-0 -78848-4 0  2603
2 18120 074.0016 145.5964 0057323 210.4893 205.1090 12.57880658209865
0 COSMOS 1859
1 18120U 87051H   13295.06333458 -.00000013  00000-0  20897-4 0  2612
2 18120 074.0015 142.5548 0057274 207.0587 321.7218 12.57880495210145
